{
"type": "FeatureCollection",
"name": "development_map",
"crs": { "type": "name", "properties": { "name": "urn:ogc:def:crs:OGC:1.3:CRS84" } },
"features": [
{ "type": "Feature", "properties": { "zip_code": "60610", "historical_permits": 51, "historical_units": 2778.0, "recent_permits": 23.0, "recent_units": 1312.0, "permit_growth": -0.5490196078431373, "unit_growth": -0.52771778257739377, "total_permits": 74.0, "total_units": 4090.0, "activity_score": 0.97368421052631582, "growth_component": 0.22549019607843135, "unit_component": 0.23614110871130312, "growth_score": 0.54877033342705128, "development_type": "Multifamily", "description": "ZIP Code 60610 with growth score 0.55" }, "geometry": { "type": "Point", "coordinates": [ -87.6798, 41.8281 ] } },
{ "type": "Feature", "properties": { "zip_code": "60615", "historical_permits": 49, "historical_units": 2351.0, "recent_permits": 27.0, "recent_units": 1506.0, "permit_growth": -0.44897959183673469, "unit_growth": -0.35942152275627393, "total_permits": 76.0, "total_units": 3857.0, "activity_score": 1.0, "growth_component": 0.27551020408163263, "unit_component": 0.32028923862186304, "growth_score": 0.54692232953175879, "development_type": "Multifamily", "description": "ZIP Code 60615 with growth score 0.55" }, "geometry": { "type": "Point", "coordinates": [ -87.6698, 41.8381 ] } },
{ "type": "Feature", "properties": { "zip_code": "60623", "historical_permits": 47, "historical_units": 2579.0, "recent_permits": 26.0, "recent_units": 1203.0, "permit_growth": -0.44680851063829785, "unit_growth": -0.53354013183404425, "total_permits": 73.0, "total_units": 3782.0, "activity_score": 0.96052631578947367, "growth_component": 0.27659574468085107, "unit_component": 0.23322993408297787, "growth_score": 0.51637269479846004, "development_type": "Multifamily", "description": "ZIP Code 60623 with growth score 0.52" }, "geometry": { "type": "Point", "coordinates": [ -87.6598, 41.8481 ] } },
{ "type": "Feature", "properties": { "zip_code": "60629", "historical_permits": 45, "historical_units": 2308.0, "recent_permits": 20.0, "recent_units": 945.0, "permit_growth": -0.55555555555555558, "unit_growth": -0.59055459272097055, "total_permits": 65.0, "total_units": 3253.0, "activity_score": 0.85526315789473684, "growth_component": 0.22222222222222221, "unit_component": 0.20472270363951472, "growth_score": 0.47943019780262008, "development_type": "Multifamily", "description": "ZIP Code 60629 with growth score 0.48" }, "geometry": { "type": "Point", "coordinates": [ -87.6498, 41.8581 ] } },
{ "type": "Feature", "properties": { "zip_code": "60628", "historical_permits": 51, "historical_units": 2476.0, "recent_permits": 18.0, "recent_units": 949.0, "permit_growth": -0.6470588235294118, "unit_growth": -0.61672051696284325, "total_permits": 69.0, "total_units": 3425.0, "activity_score": 0.90789473684210531, "growth_component": 0.1764705882352941, "unit_component": 0.19163974151857838, "growth_score": 0.47501443750436501, "development_type": "Multifamily", "description": "ZIP Code 60628 with growth score 0.48" }, "geometry": { "type": "Point", "coordinates": [ -87.6398, 41.8681 ] } },
{ "type": "Feature", "properties": { "zip_code": "60604", "historical_permits": 56, "historical_units": 2974.0, "recent_permits": 15.0, "recent_units": 808.0, "permit_growth": -0.7321428571428571, "unit_growth": -0.72831203765971753, "total_permits": 71.0, "total_units": 3782.0, "activity_score": 0.93421052631578949, "growth_component": 0.13392857142857145, "unit_component": 0.13584398117014124, "growth_score": 0.46448182472563332, "development_type": "Multifamily", "description": "ZIP Code 60604 with growth score 0.46" }, "geometry": { "type": "Point", "coordinates": [ -87.6298, 41.8781 ] } },
{ "type": "Feature", "properties": { "zip_code": "60648", "historical_permits": 36, "historical_units": 1845.0, "recent_permits": 17.0, "recent_units": 1016.0, "permit_growth": -0.52777777777777779, "unit_growth": -0.44932249322493223, "total_permits": 53.0, "total_units": 2861.0, "activity_score": 0.69736842105263153, "growth_component": 0.2361111111111111, "unit_component": 0.27533875338753389, "growth_score": 0.43438912988842721, "development_type": "Multifamily", "description": "ZIP Code 60648 with growth score 0.43" }, "geometry": { "type": "Point", "coordinates": [ -87.6198, 41.8881 ] } },
{ "type": "Feature", "properties": { "zip_code": "60642", "historical_permits": 43, "historical_units": 2292.0, "recent_permits": 17.0, "recent_units": 799.0, "permit_growth": -0.60465116279069764, "unit_growth": -0.65139616055846428, "total_permits": 60.0, "total_units": 3091.0, "activity_score": 0.78947368421052633, "growth_component": 0.19767441860465118, "unit_component": 0.17430191972076786, "growth_score": 0.42690006619296333, "development_type": "Multifamily", "description": "ZIP Code 60642 with growth score 0.43" }, "geometry": { "type": "Point", "coordinates": [ -87.6098, 41.8981 ] } },
{ "type": "Feature", "properties": { "zip_code": "60616", "historical_permits": 49, "historical_units": 2646.0, "recent_permits": 16.0, "recent_units": 926.0, "permit_growth": -0.67346938775510201, "unit_growth": -0.6500377928949358, "total_permits": 65.0, "total_units": 3572.0, "activity_score": 0.85526315789473684, "growth_component": 0.16326530612244899, "unit_component": 0.1749811035525321, "growth_score": 0.41191963704573242, "development_type": "Multifamily", "description": "ZIP Code 60616 with growth score 0.41" }, "geometry": { "type": "Point", "coordinates": [ -87.5998, 41.9081 ] } },
{ "type": "Feature", "properties": { "zip_code": "60638", "historical_permits": 43, "historical_units": 1893.0, "recent_permits": 17.0, "recent_units": 770.0, "permit_growth": -0.60465116279069764, "unit_growth": -0.59323824617010035, "total_permits": 60.0, "total_units": 2663.0, "activity_score": 0.78947368421052633, "growth_component": 0.19767441860465118, "unit_component": 0.20338087691494983, "growth_score": 0.39587327374072923, "development_type": "Multifamily", "description": "ZIP Code 60638 with growth score 0.40" }, "geometry": { "type": "Point", "coordinates": [ -87.5898, 41.9181 ] } }
]
}
